H1 CPF 01  gfz 2021 10 11 12  7842 tandemx   
H2 1003001  6202 36605    2021 10 11 12 59 42 2021 10 16 00 00 42   120 1 1  0 0 0
H9
10 0 59498  79902.000000  0    -260964.936  -1406928.424   6727421.236
10 0 59498  80022.000000  0    -695138.061   -600191.608   6816123.695
10 0 59498  80142.000000  0   -1102907.949    224384.282   6785065.189
10 0 59498  80262.000000  0   -1476978.900   1051886.961   6634787.301
10 0 59498  80382.000000  0   -1810902.231   1867230.003   6367912.853
10 0 59498  80502.000000  0   -2099187.977   2655427.156   5989103.121
10 0 59498  80622.000000  0   -2337395.904   3401868.415   5504981.124
10 0 59498  80742.000000  0   -2522204.685   4092592.895   4924022.311
10 0 59498  80862.000000  0   -2651458.983   4714555.130   4256412.758
10 0 59498  80982.000000  0   -2724192.067   5255878.615   3513875.046
10 0 59498  81102.000000  0   -2740623.454   5706090.874   2709464.030
10 0 59498  81222.000000  0   -2702131.390   6056333.801   1857336.413
10 0 59498  81342.000000  0   -2611201.113   6299545.118    972498.294
10 0 59498  81462.000000  0   -2471349.248   6430606.115     70535.082
10 0 59498  81582.000000  0   -2287026.760   6446451.760   -832670.907
10 0 59498  81702.000000  0   -2063503.032   6346140.401  -1721230.242
10 0 59498  81822.000000  0   -1806732.108   6130877.312  -2579537.492
10 0 59498  81942.000000  0   -1523205.760   5803992.761  -3392550.296
10 0 59498  82062.000000  0   -1219799.471   5370881.410  -4146054.296
10 0 59498  82182.000000  0    -903614.136   4838901.558  -4826910.747
10 0 59498  82302.000000  0    -581817.156   4217238.698  -5423280.163
10 0 59498  82422.000000  0    -261486.271   3516737.302  -5924821.142
10 0 59498  82542.000000  0      50540.752   2749702.724  -6322860.437
10 0 59498  82662.000000  0     347806.496   1929679.047  -6610530.830
10 0 59498  82782.000000  0     624362.067   1071209.486  -6782878.627
10 0 59498  82902.000000  0     874881.816    189580.507  -6836940.518
10 0 59498  83022.000000  0    1094762.394   -699445.767  -6771788.738
10 0 59498  83142.000000  0    1280204.594  -1579907.260  -6588543.841
10 0 59498  83262.000000  0    1428277.308  -2435920.210  -6290356.816
10 0 59498  83382.000000  0    1536963.839  -3251958.644  -5882362.290
10 0 59498  83502.000000  0    1605188.612  -4013133.792  -5371600.851
10 0 59498  83622.000000  0    1632823.807  -4705466.797  -4766907.267
10 0 59498  83742.000000  0    1620676.775  -5316147.548  -4078768.488
10 0 59498  83862.000000  0    1570457.182  -5833779.310  -3319153.032
10 0 59498  83982.000000  0    1484723.593  -6248601.790  -2501310.307
10 0 59498  84102.000000  0    1366812.050  -6552686.631  -1639543.687
10 0 59498  84222.000000  0    1220747.400  -6740100.740   -748960.822
10 0 59498  84342.000000  0    1051137.767  -6807032.909    154794.640
10 0 59498  84462.000000  0     863057.056  -6751878.439   1055824.168
10 0 59498  84582.000000  0     661916.537  -6575280.737   1938262.053
10 0 59498  84702.000000  0     453330.090  -6280127.402   2786564.986
10 0 59498  84822.000000  0     242975.338  -5871498.945   3585795.194
10 0 59498  84942.000000  0      36454.178  -5356573.552   4321888.699
10 0 59498  85062.000000  0    -160842.485  -4744492.757   4981905.773
10 0 59498  85182.000000  0    -343862.964  -4046188.966   5554259.036
10 0 59498  85302.000000  0    -508012.580  -3274180.496   6028915.135
10 0 59498  85422.000000  0    -649259.128  -2442337.076   6397566.011
10 0 59498  85542.000000  0    -764223.715  -1565624.615   6653766.277
10 0 59498  85662.000000  0    -850255.344   -659833.902   6793040.150
10 0 59498  85782.000000  0    -905488.461    258705.307   6812956.115
10 0 59498  85902.000000  0    -928881.927   1173419.047   6713166.766
10 0 59498  86022.000000  0    -920238.047   2067787.794   6495414.294
10 0 59498  86142.000000  0    -880202.265   2925644.281   6163501.876
10 0 59498  86262.000000  0    -810243.908   3731466.408   5723231.583
10 0 59498  86382.000000  0    -712617.791   4470660.876   5182308.034
10 0 59499    102.000000  0    -590307.341   5129832.143   4550210.066
10 0 59499    222.000000  0    -446950.573   5697033.895   3838029.422
10 0 59499    342.000000  0    -286749.348   6161992.486   3058279.287
10 0 59499    462.000000  0    -114366.332   6516305.580   2224678.216
10 0 59499    582.000000  0      65191.469   6753605.482   1351902.980
10 0 59499    702.000000  0     246699.109   6869679.487    455324.611
10 0 59499    822.000000  0     424845.494   6862549.593   -449269.322
10 0 59499    942.000000  0     594368.291   6732507.019  -1345962.117
10 0 59499   1062.000000  0     750186.339   6482099.571  -2218996.703
10 0 59499   1182.000000  0     887527.188   6116074.906  -3053059.001
10 0 59499   1302.000000  0    1002047.780   5641281.028  -3833550.723
10 0 59499   1422.000000  0    1089944.831   5066526.581  -4546846.194
10 0 59499   1542.000000  0    1148052.242   4402404.826  -5180527.617
10 0 59499   1662.000000  0    1173923.417   3661086.881  -5723594.418
10 0 59499   1782.000000  0    1165896.419   2856090.052  -6166645.292
10 0 59499   1902.000000  0    1123141.326   2002024.842  -6502029.858
10 0 59499   2022.000000  0    1045688.986   1114328.508  -6723968.463
10 0 59499   2142.000000  0     934440.992    208988.458  -6828642.652
10 0 59499   2262.000000  0     791160.989   -697741.310  -6814253.647
10 0 59499   2382.000000  0     618446.783  -1589625.814  -6681048.584
10 0 59499   2502.000000  0     419684.646  -2450731.117  -6431315.638
10 0 59499   2622.000000  0     198986.062  -3265701.901  -6069351.293
10 0 59499   2742.000000  0     -38893.476  -4020033.100  -5601394.682
10 0 59499   2862.000000  0    -288650.490  -4700327.227  -5035529.778
10 0 59499   2982.000000  0    -544544.207  -5294535.833  -4381557.692
10 0 59499   3102.000000  0    -800520.409  -5792180.558  -3650837.935
10 0 59499   3222.000000  0   -1050345.654  -6184548.285  -2856099.791
10 0 59499   3342.000000  0   -1287749.079  -6464855.681  -2011226.785
10 0 59499   3462.000000  0   -1506568.882  -6628379.890  -1131016.444
10 0 59499   3582.000000  0   -1700899.462  -6672549.868   -230918.761
10 0 59499   3702.000000  0   -1865235.805  -6596995.250    673240.461
10 0 59499   3822.000000  0   -1994611.688  -6403551.274   1565545.542
10 0 59499   3942.000000  0   -2084727.670  -6096219.062   2430280.212
10 0 59499   4062.000000  0   -2132065.157  -5681081.734   3252213.641
10 0 59499   4182.000000  0   -2133983.394  -5166178.553   4016876.000
10 0 59499   4302.000000  0   -2088797.251  -4561341.544   4710817.553
10 0 59499   4422.000000  0   -1995834.583  -3877999.569   5321846.778
10 0 59499   4542.000000  0   -1855472.092  -3128953.066   5839244.549
10 0 59499   4662.000000  0   -1669147.344  -2328125.062   6253947.975
10 0 59499   4782.000000  0   -1439347.776  -1490297.005   6558702.918
10 0 59499   4902.000000  0   -1169578.260   -630832.371   6748185.458
10 0 59499   5022.000000  0    -864308.006    234607.498   6819088.421
10 0 59499   5142.000000  0    -528896.802   1090347.834   6770175.352
10 0 59499   5262.000000  0    -169500.734   1920984.012   6602301.370
10 0 59499   5382.000000  0     207040.752   2711658.704   6318398.993
10 0 59499   5502.000000  0     593334.144   3448327.568   5923429.752
10 0 59499   5622.000000  0     981575.226   4118010.903   5424302.897
10 0 59499   5742.000000  0    1363704.821   4709026.644   4829760.306
10 0 59499   5862.000000  0    1731574.183   5211200.904   4150228.797
10 0 59499   5982.000000  0    2077116.673   5616050.058   3397642.039
10 0 59499   6102.000000  0    2392523.434   5916933.980   2585234.722
10 0 59499   6222.000000  0    2670416.222   6109174.732   1727306.881
10 0 59499   6342.000000  0    2904015.830   6190134.669    838966.808
10 0 59499   6462.000000  0    3087298.726   6159252.954    -64142.204
10 0 59499   6582.000000  0    3215140.301   6018041.115   -966124.997
10 0 59499   6702.000000  0    3283440.920   5770036.462  -1851122.669
10 0 59499   6822.000000  0    3289230.926   5420715.674  -2703598.708
10 0 59499   6942.000000  0    3230752.541   4977369.983  -3508618.101
10 0 59499   7062.000000  0    3107515.446   4448944.897  -4252111.852
10 0 59499   7182.000000  0    2920326.156   3845851.301  -4921121.101
10 0 59499   7302.000000  0    2671290.665   3179752.500  -5504018.199
10 0 59499   7422.000000  0    2363791.980   2463331.921  -5990700.716
10 0 59499   7542.000000  0    2002442.037   1710047.063  -6372756.179
10 0 59499   7662.000000  0    1593010.186    933875.401  -6643595.252
10 0 59499   7782.000000  0    1142330.933    149057.451  -6798554.415
10 0 59499   7902.000000  0     658189.892   -630160.022  -6834968.867
10 0 59499   8022.000000  0     149190.506  -1389777.429  -6752212.103
10 0 59499   8142.000000  0    -375394.709  -2116286.488  -6551704.373
10 0 59499   8262.000000  0    -905788.353  -2796904.262  -6236892.604
10 0 59499   8382.000000  0   -1431886.056  -3419795.543  -5813197.695
10 0 59499   8502.000000  0   -1943443.970  -3974277.272  -5287930.390
10 0 59499   8622.000000  0   -2430274.702  -4451004.536  -4670177.608
10 0 59499   8742.000000  0   -2882449.030  -4842134.700  -3970656.657
10 0 59499   8862.000000  0   -3290498.149  -5141464.056  -3201538.485
10 0 59499   8982.000000  0   -3645612.295  -5344535.023  -2376243.438
10 0 59499   9102.000000  0   -3939832.193  -5448711.161  -1509211.169
10 0 59499   9222.000000  0   -4166227.921  -5453217.065   -615647.804
10 0 59499   9342.000000  0   -4319059.877  -5359141.421    288744.893
10 0 59499   9462.000000  0   -4393917.665  -5169402.437   1188052.452
10 0 59499   9582.000000  0   -4387833.168  -4888675.647   2066437.146
10 0 59499   9702.000000  0   -4299363.821  -4523285.250   2908426.246
10 0 59499   9822.000000  0   -4128644.867  -4081063.101   3699192.205
10 0 59499   9942.000000  0   -3877409.475  -3571179.024   4424819.986
99
